{"type":"FeatureCollection","features":[{"type":"Feature","properties":{"kind":"track"},"geometry":{"type":"MultiLineString","coordinates":[[[-122.270713,37.799861],[-122.270179,37.799654],[-122.269529,37.799396],[-122.268525,37.798992],[-122.267377,37.798517],[-122.267183,37.798395],[-122.26691,37.79824],[-122.266683,37.798083],[-122.266323,37.797875],[-122.265589,37.797472],[-122.265182,37.797248],[-122.264574,37.796939],[-122.264202,37.79674],[-122.26366,37.796465],[-122.262696,37.795886],[-122.261985,37.79539],[-122.261091,37.794706],[-122.25951,37.793439],[-122.259311,37.793293]],[[-122.276587,37.798505],[-122.276236,37.798476],[-122.276079,37.798511]],[[-122.276587,37.798505],[-122.276496,37.798504],[-122.276426,37.798505],[-122.27637,37.798508],[-122.276299,37.798511],[-122.276219,37.798509],[-122.276139,37.798509],[-122.276079,37.798511]],[[-122.276856,37.798527],[-122.276827,37.798521],[-122.276602,37.798505],[-122.276587,37.798505]],[[-122.276856,37.798527],[-122.276587,37.798505]],[[-122.299161,37.806262],[-122.298135,37.806031],[-122.297836,37.805959],[-122.297584,37.805879],[-122.297324,37.805794],[-122.297073,37.805706],[-122.296836,37.805615],[-122.296599,37.805523],[-122.296356,37.805421],[-122.296134,37.805318],[-122.296096,37.805302],[-122.295089,37.804897],[-122.293883,37.80441],[-122.29341,37.804204],[-122.292579,37.803875],[-122.292563,37.803872],[-122.29206,37.803669],[-122.291923,37.803616],[-122.291747,37.803548],[-122.291663,37.803513],[-122.291564,37.803468],[-122.291335,37.803381],[-122.29132,37.803376],[-122.291312,37.803371],[-122.291297,37.803365],[-122.291137,37.803291],[-122.290946,37.803223],[-122.284796,37.801721],[-122.284606,37.801668],[-122.284431,37.801611],[-122.284095,37.801496],[-122.283744,37.801381],[-122.283645,37.801347],[-122.283523,37.801296],[-122.283386,37.801237],[-122.283157,37.801141],[-122.282943,37.801045],[-122.282546,37.800853],[-122.282294,37.800744],[-122.282272,37.800732],[-122.28218,37.800693],[-122.281188,37.800214],[-122.280051,37.799664],[-122.280044,37.79966],[-122.279952,37.799607],[-122.279907,37.799584],[-122.279716,37.799493],[-122.279471,37.799368],[-122.279183,37.799217],[-122.278686,37.798956],[-122.278478,37.798859],[-122.278369,37.798811],[-122.278197,37.798746],[-122.278051,37.798694],[-122.277819,37.798637],[-122.277697,37.798614],[-122.277507,37.798583],[-122.277358,37.798568],[-122.276984,37.798532],[-122.276923,37.798528],[-122.276856,37.798527]],[[-122.276079,37.798511],[-122.276054,37.798516],[-122.275284,37.79867]],[[-122.276079,37.798511],[-122.27606,37.798511],[-122.27598,37.798516],[-122.2759,37.798523],[-122.275821,37.798533],[-122.275742,37.798546],[-122.275664,37.798561],[-122.275586,37.798578],[-122.275509,37.798598],[-122.275432,37.79862],[-122.275356,37.798644],[-122.275284,37.79867]],[[-122.270949,37.799948],[-122.270713,37.799861]],[[-122.270949,37.799948],[-122.270928,37.799942],[-122.270713,37.799861]],[[-122.275284,37.79867],[-122.274868,37.798753],[-122.274691,37.79884],[-122.273728,37.799315],[-122.2732,37.79959],[-122.272781,37.799796],[-122.27243,37.799896],[-122.272291,37.799938],[-122.271322,37.800023],[-122.271097,37.799987],[-122.270949,37.799948]],[[-122.27264,37.801948],[-122.272781,37.801619],[-122.272835,37.801517],[-122.272851,37.801407],[-122.27269,37.801019],[-122.272342,37.800625],[-122.271408,37.800137],[-122.271062,37.799989],[-122.270949,37.799948]],[[-122.275284,37.79867],[-122.275281,37.798671],[-122.275207,37.798701],[-122.275133,37.798732],[-122.275061,37.798766],[-122.27499,37.798803],[-122.27492,37.798841],[-122.274851,37.798882],[-122.274783,37.798924],[-122.274717,37.798969],[-122.274653,37.799016],[-122.27459,37.799065],[-122.274528,37.799116],[-122.274468,37.799169],[-122.27441,37.799223],[-122.274354,37.79928],[-122.274299,37.799338],[-122.274246,37.799398],[-122.274239,37.799405],[-122.274232,37.799413],[-122.274225,37.799421],[-122.274218,37.799429],[-122.274211,37.799437],[-122.274204,37.799445],[-122.274198,37.799452],[-122.274191,37.79946],[-122.274184,37.799468],[-122.274177,37.799476],[-122.274171,37.799484],[-122.274164,37.799492],[-122.274157,37.7995],[-122.274151,37.799508],[-122.274144,37.799516],[-122.274138,37.799524],[-122.274131,37.799532],[-122.274125,37.799541],[-122.274118,37.799549],[-122.274112,37.799557],[-122.274105,37.799565],[-122.274099,37.799573],[-122.274093,37.799582],[-122.274086,37.79959],[-122.27408,37.799598],[-122.274074,37.799606],[-122.274068,37.799615],[-122.274062,37.799623],[-122.274055,37.799632],[-122.273734,37.800156],[-122.273306,37.800852],[-122.27275,37.80177],[-122.27264,37.801948]],[[-122.272577,37.80205],[-122.272597,37.802018],[-122.27264,37.801948],[-122.27264,37.801948]],[[-122.27264,37.801948],[-122.272577,37.80205]],[[-122.272538,37.802113],[-122.272558,37.80208],[-122.272577,37.80205]],[[-122.272577,37.80205],[-122.272538,37.802113]],[[-122.272498,37.802177],[-122.272516,37.802149],[-122.272538,37.802113]],[[-122.272538,37.802113],[-122.272498,37.802177]],[[-122.272463,37.802234],[-122.272475,37.802214],[-122.272498,37.802177]],[[-122.272498,37.802177],[-122.272463,37.802234]],[[-122.272386,37.802362],[-122.272447,37.802261],[-122.272463,37.802234]],[[-122.272463,37.802234],[-122.27246,37.802239],[-122.272386,37.802362]],[[-122.272386,37.802362],[-122.27206,37.802936],[-122.271633,37.803634],[-122.271335,37.804087],[-122.271205,37.8043],[-122.270603,37.805288],[-122.269779,37.80664],[-122.269489,37.807113],[-122.269092,37.80776],[-122.268426,37.808835],[-122.26828,37.809066],[-122.268251,37.809113],[-122.268211,37.809176],[-122.268106,37.809342],[-122.268034,37.809454],[-122.267591,37.810093],[-122.267688,37.810365],[-122.267838,37.810589],[-122.268951,37.811691],[-122.270027,37.812683],[-122.270547,37.813539],[-122.270767,37.814035],[-122.270858,37.814403],[-122.270938,37.814854],[-122.270936,37.814932],[-122.27093,37.81504],[-122.270896,37.815301],[-122.270876,37.815432],[-122.270865,37.815487],[-122.270811,37.815732],[-122.270784,37.815843],[-122.270726,37.816043],[-122.270625,37.816364],[-122.270474,37.816811],[-122.27016,37.817787],[-122.269854,37.818831],[-122.269692,37.819431],[-122.269583,37.819828],[-122.269016,37.821886],[-122.268918,37.822252],[-122.268855,37.822479],[-122.268774,37.822819],[-122.268719,37.823044],[-122.268674,37.823233],[-122.268612,37.82349],[-122.26858,37.823624],[-122.268547,37.823729],[-122.2685,37.823877],[-122.268482,37.823931],[-122.268459,37.823999],[-122.26843,37.824084],[-122.26841,37.824145],[-122.268384,37.824222],[-122.26836,37.824292],[-122.268331,37.824388],[-122.268284,37.824541],[-122.268228,37.824702],[-122.268149,37.824951],[-122.267849,37.825838],[-122.26769,37.826358],[-122.267602,37.826666],[-122.267547,37.826888],[-122.267504,37.827066],[-122.2674,37.827569],[-122.26701,37.829461],[-122.266993,37.829541],[-122.266969,37.829645],[-122.26672,37.830865],[-122.266637,37.831245],[-122.266551,37.831691],[-122.266289,37.832956],[-122.266242,37.833187],[-122.266223,37.833272]],[[-122.288394,37.877974],[-122.28812,37.877354],[-122.287511,37.876248],[-122.287487,37.876217],[-122.287462,37.876186],[-122.287437,37.876155],[-122.287412,37.876125],[-122.287386,37.876095],[-122.28736,37.876065],[-122.287333,37.876035],[-122.287307,37.876006],[-122.287279,37.875977],[-122.287252,37.875949],[-122.287224,37.875921],[-122.287196,37.875893],[-122.287167,37.875866],[-122.287138,37.875838],[-122.287109,37.875812],[-122.287079,37.875785],[-122.287049,37.875759],[-122.287019,37.875734],[-122.286989,37.875709],[-122.286958,37.875684],[-122.286927,37.875659],[-122.286895,37.875635],[-122.286863,37.875611],[-122.286831,37.875588],[-122.286799,37.875565],[-122.286766,37.875543],[-122.286734,37.87552],[-122.286701,37.875499],[-122.286667,37.875477],[-122.285372,37.874844],[-122.284961,37.874672],[-122.282143,37.873492],[-122.282138,37.87349],[-122.282096,37.873472],[-122.280665,37.87296],[-122.280367,37.872896],[-122.280338,37.87289],[-122.280309,37.872884],[-122.28028,37.872879],[-122.280251,37.872874],[-122.280222,37.872869],[-122.280193,37.872864],[-122.280164,37.872859],[-122.280134,37.872855],[-122.280105,37.872851],[-122.280076,37.872847],[-122.280047,37.872843],[-122.280017,37.872839],[-122.279988,37.872836],[-122.279959,37.872833],[-122.279929,37.87283],[-122.2799,37.872827],[-122.279871,37.872824],[-122.279841,37.872822],[-122.279812,37.87282],[-122.279782,37.872818],[-122.279753,37.872817],[-122.279723,37.872815],[-122.279694,37.872814],[-122.279665,37.872813],[-122.279635,37.872812],[-122.279606,37.872812],[-122.279576,37.872811],[-122.279547,37.872811],[-122.279517,37.872811],[-122.277954,37.872935],[-122.274524,37.87338],[-122.274216,37.87342],[-122.271783,37.873735],[-122.271736,37.87374],[-122.271689,37.873745],[-122.271641,37.87375],[-122.271594,37.873755],[-122.271547,37.873759],[-122.271499,37.873764],[-122.271452,37.873768],[-122.271404,37.873772],[-122.271357,37.873775],[-122.271309,37.873779],[-122.271262,37.873782],[-122.271214,37.873785],[-122.271167,37.873788],[-122.271119,37.873791],[-122.271072,37.873793],[-122.271024,37.873795],[-122.270977,37.873797],[-122.270929,37.873799],[-122.270881,37.873801],[-122.270834,37.873802],[-122.270786,37.873803],[-122.270739,37.873804],[-122.270691,37.873805],[-122.270643,37.873806],[-122.270596,37.873806],[-122.270548,37.873806],[-122.270501,37.873806],[-122.270453,37.873806],[-122.270405,37.873806],[-122.270354,37.873809],[-122.270302,37.873811],[-122.27025,37.873812],[-122.270198,37.873811],[-122.270146,37.873808],[-122.270094,37.873803],[-122.270043,37.873797],[-122.269991,37.87379],[-122.26994,37.87378],[-122.269889,37.873769],[-122.269839,37.873757],[-122.269789,37.873743],[-122.269739,37.873727],[-122.269691,37.87371],[-122.269642,37.873691],[-122.269594,37.873671],[-122.269547,37.873649],[-122.2695,37.873626],[-122.269455,37.873602],[-122.26941,37.873576],[-122.269365,37.873548],[-122.269322,37.873519],[-122.26928,37.873489],[-122.269239,37.873458],[-122.269198,37.873425],[-122.269159,37.873391],[-122.269121,37.873356],[-122.269084,37.873319],[-122.269048,37.873282],[-122.269031,37.873265],[-122.269015,37.873248],[-122.268999,37.873231],[-122.268982,37.873214],[-122.268966,37.873197],[-122.26895,37.87318],[-122.268933,37.873163],[-122.268917,37.873146],[-122.268901,37.873129],[-122.268885,37.873112],[-122.268869,37.873095],[-122.268852,37.873077],[-122.268837,37.87306],[-122.268821,37.873043],[-122.268805,37.873025],[-122.268789,37.873008],[-122.268773,37.872991],[-122.268757,37.872973],[-122.268742,37.872956],[-122.268726,37.872938],[-122.26871,37.87292],[-122.268694,37.872903],[-122.268679,37.872885],[-122.268663,37.872867],[-122.268648,37.87285],[-122.268632,37.872832],[-122.268617,37.872814],[-122.268602,37.872796],[-122.268586,37.872778],[-122.268579,37.872769],[-122.268572,37.87276],[-122.268564,37.872751],[-122.268557,37.872742],[-122.26855,37.872733],[-122.268543,37.872724],[-122.268536,37.872715],[-122.268528,37.872705],[-122.268522,37.872696],[-122.268515,37.872687],[-122.268508,37.872677],[-122.268501,37.872668],[-122.268494,37.872658],[-122.268487,37.872649],[-122.268481,37.872639],[-122.268474,37.87263],[-122.268467,37.87262],[-122.268461,37.872611],[-122.268454,37.872601],[-122.268448,37.872591],[-122.268441,37.872582],[-122.268435,37.872572],[-122.268429,37.872562],[-122.268422,37.872552],[-122.268416,37.872543],[-122.26841,37.872533],[-122.268404,37.872523],[-122.268397,37.872513],[-122.268392,37.872503],[-122.268387,37.872491],[-122.268382,37.872479],[-122.268377,37.872467],[-122.268372,37.872455],[-122.268368,37.872443],[-122.268364,37.872431],[-122.268359,37.872419],[-122.268355,37.872406],[-122.268351,37.872394],[-122.268347,37.872382],[-122.268343,37.87237],[-122.268339,37.872357],[-122.268336,37.872345],[-122.268332,37.872332],[-122.268329,37.87232],[-122.268326,37.872307],[-122.268323,37.872295],[-122.26832,37.872282],[-122.268317,37.87227],[-122.268314,37.872257],[-122.268311,37.872244],[-122.268308,37.872232],[-122.268306,37.872219],[-122.268304,37.872206],[-122.268302,37.872194],[-122.268299,37.872181],[-122.268298,37.872168],[-122.268296,37.872155],[-122.268294,37.872143],[-122.268212,37.871405],[-122.267938,37.868922],[-122.267923,37.868785],[-122.267893,37.868515],[-122.267866,37.868246],[-122.267806,37.867634],[-122.26775,37.867074],[-122.267676,37.866514],[-122.267658,37.866408],[-122.26764,37.866302],[-122.267623,37.866196],[-122.267606,37.86609],[-122.267589,37.865984],[-122.267572,37.865877],[-122.267556,37.865771],[-122.26754,37.865665],[-122.267524,37.865558],[-122.267509,37.865452],[-122.267493,37.865346],[-122.267478,37.865239],[-122.267464,37.865132],[-122.267449,37.865026],[-122.267435,37.864919],[-122.267421,37.864813],[-122.267407,37.864706],[-122.267394,37.864599],[-122.267381,37.864492],[-122.267368,37.864386],[-122.267356,37.864279],[-122.267343,37.864172],[-122.267331,37.864065],[-122.26732,37.863958],[-122.267308,37.863851],[-122.267297,37.863744],[-122.267286,37.863637],[-122.267275,37.86353],[-122.267265,37.863423],[-122.267094,37.861506],[-122.267096,37.861445],[-122.267098,37.861384],[-122.2671,37.861323],[-122.267103,37.861262],[-122.267106,37.861201],[-122.26711,37.86114],[-122.267114,37.861079],[-122.267119,37.861019],[-122.267123,37.860958],[-122.267129,37.860897],[-122.267134,37.860836],[-122.26714,37.860775],[-122.267147,37.860715],[-122.267154,37.860654],[-122.267161,37.860593],[-122.267168,37.860533],[-122.267176,37.860472],[-122.267185,37.860412],[-122.267194,37.860351],[-122.267203,37.860291],[-122.267212,37.860231],[-122.267222,37.86017],[-122.267232,37.86011],[-122.267243,37.86005],[-122.267254,37.85999],[-122.267266,37.85993],[-122.267278,37.85987],[-122.26729,37.85981],[-122.267303,37.859751],[-122.267922,37.857893],[-122.268017,37.857643],[-122.2685,37.856374],[-122.268508,37.856353],[-122.268516,37.856331],[-122.268524,37.856309],[-122.268532,37.856287],[-122.26854,37.856265],[-122.268548,37.856244],[-122.268556,37.856222],[-122.268564,37.8562],[-122.268572,37.856178],[-122.26858,37.856156],[-122.268589,37.856134],[-122.268596,37.856113],[-122.268605,37.856091],[-122.268613,37.856069],[-122.268621,37.856047],[-122.268629,37.856026],[-122.268637,37.856004],[-122.268645,37.855982],[-122.268653,37.85596],[-122.268662,37.855938],[-122.26867,37.855917],[-122.268678,37.855895],[-122.268686,37.855873],[-122.268694,37.855851],[-122.268702,37.855829],[-122.26871,37.855808],[-122.268719,37.855786],[-122.268727,37.855764],[-122.268735,37.855742],[-122.268965,37.855109],[-122.268974,37.855087],[-122.268983,37.855066],[-122.268993,37.855045],[-122.269002,37.855023],[-122.269011,37.855002],[-122.26902,37.85498],[-122.269028,37.854959],[-122.269037,37.854937],[-122.269046,37.854916],[-122.269054,37.854894],[-122.269063,37.854872],[-122.269071,37.854851],[-122.26908,37.854829],[-122.269088,37.854807],[-122.269096,37.854785],[-122.269104,37.854763],[-122.269112,37.854742],[-122.26912,37.85472],[-122.269127,37.854698],[-122.269135,37.854676],[-122.269143,37.854654],[-122.26915,37.854632],[-122.269157,37.85461],[-122.269165,37.854587],[-122.269172,37.854565],[-122.269179,37.854543],[-122.269186,37.854521],[-122.269193,37.854499],[-122.2692,37.854477],[-122.269281,37.854263],[-122.270201,37.851966],[-122.270229,37.851883],[-122.270234,37.851866],[-122.27024,37.851849],[-122.270245,37.851832],[-122.27025,37.851816],[-122.270256,37.851799],[-122.270261,37.851782],[-122.270267,37.851765],[-122.270272,37.851748],[-122.270278,37.851732],[-122.270284,37.851715],[-122.27029,37.851698],[-122.270295,37.851681],[-122.270301,37.851665],[-122.270307,37.851648],[-122.270313,37.851631],[-122.270319,37.851615],[-122.270325,37.851598],[-122.270331,37.851581],[-122.270337,37.851565],[-122.270344,37.851548],[-122.27035,37.851532],[-122.270357,37.851515],[-122.270363,37.851499],[-122.270369,37.851482],[-122.270376,37.851466],[-122.270382,37.851449],[-122.270389,37.851433],[-122.270396,37.851417],[-122.270403,37.8514],[-122.270558,37.850931],[-122.271091,37.849368],[-122.271109,37.849305],[-122.271126,37.849227],[-122.271169,37.848986],[-122.271194,37.848803],[-122.271216,37.848579],[-122.271232,37.848101],[-122.271219,37.847617],[-122.271188,37.847303],[-122.271148,37.847028],[-122.271056,37.846514],[-122.270963,37.84606],[-122.26976,37.8403],[-122.269643,37.839765],[-122.269565,37.83944],[-122.269467,37.839082],[-122.269258,37.838509],[-122.269245,37.83848],[-122.269232,37.83845],[-122.269218,37.838421],[-122.269205,37.838392],[-122.26919,37.838363],[-122.269177,37.838333],[-122.269162,37.838304],[-122.269148,37.838275],[-122.269134,37.838246],[-122.269119,37.838218],[-122.269104,37.838189],[-122.26909,37.83816],[-122.269075,37.838131],[-122.269059,37.838103],[-122.269044,37.838074],[-122.269028,37.838046],[-122.269013,37.838018],[-122.268997,37.83799],[-122.268981,37.837962],[-122.268965,37.837934],[-122.268949,37.837906],[-122.268932,37.837878],[-122.268916,37.83785],[-122.268899,37.837822],[-122.268882,37.837795],[-122.268865,37.837767],[-122.268848,37.83774],[-122.268831,37.837713],[-122.268813,37.837686],[-122.268669,37.837476],[-122.268548,37.837313],[-122.26848,37.837226],[-122.268387,37.837109],[-122.26808,37.836751],[-122.267733,37.836368],[-122.267397,37.836001],[-122.267197,37.83577],[-122.266994,37.835521],[-122.266878,37.835356],[-122.266699,37.835075],[-122.266603,37.834899],[-122.266503,37.83469],[-122.26643,37.834491],[-122.266365,37.834259],[-122.266327,37.834103],[-122.266302,37.833975],[-122.266288,37.83382],[-122.266269,37.833696],[-122.266263,37.833648],[-122.266253,37.83358],[-122.266242,37.833494],[-122.26624,37.833484],[-122.266219,37.833335],[-122.266223,37.833272]],[[-122.266223,37.833272],[-122.266209,37.833347],[-122.266182,37.833521],[-122.26608,37.834117],[-122.265967,37.834891],[-122.265932,37.835121],[-122.265861,37.835581],[-122.265822,37.835868],[-122.265703,37.836541],[-122.265609,37.837041],[-122.265559,37.837282],[-122.265506,37.837498],[-122.265434,37.837748],[-122.265376,37.837926],[-122.265343,37.838018],[-122.265286,37.838169],[-122.265228,37.83831],[-122.265151,37.838467],[-122.265115,37.838542],[-122.265035,37.838697],[-122.264962,37.838812],[-122.264888,37.838934],[-122.264797,37.839055],[-122.2647,37.839194],[-122.264616,37.839303],[-122.264553,37.839378],[-122.264435,37.839517],[-122.264333,37.839628],[-122.264219,37.839736],[-122.264121,37.83984],[-122.263985,37.839962],[-122.263846,37.840079],[-122.263696,37.8402],[-122.26358,37.840286],[-122.263466,37.840369],[-122.263383,37.840424],[-122.263312,37.840471],[-122.263158,37.840567],[-122.263007,37.840665],[-122.262872,37.840737],[-122.262721,37.840818],[-122.262577,37.84089],[-122.262437,37.840953],[-122.262335,37.841001],[-122.262221,37.841049],[-122.262011,37.841133],[-122.261805,37.841212],[-122.26165,37.841266],[-122.261533,37.841308],[-122.261228,37.841409],[-122.258415,37.8423],[-122.258124,37.842388],[-122.257785,37.842494],[-122.257179,37.842685],[-122.256817,37.842799],[-122.256568,37.842878],[-122.256377,37.842936],[-122.256061,37.843031],[-122.25581,37.843113],[-122.255366,37.843258],[-122.254953,37.843397],[-122.254359,37.843613],[-122.254171,37.843683],[-122.254002,37.843748],[-122.253644,37.843886],[-122.252694,37.844257],[-122.252371,37.84438],[-122.251927,37.84455],[-122.25165,37.844656],[-122.251032,37.844906],[-122.250023,37.845295],[-122.248551,37.845869],[-122.248267,37.845983],[-122.247714,37.846214],[-122.247315,37.84639]]]}},{"type":"Feature","properties":{"kind":"station","name":"Downtown Berkeley"},"geometry":{"type":"Point","coordinates":[-122.268159,37.870316]}},{"type":"Feature","properties":{"kind":"station","name":"North Berkeley"},"geometry":{"type":"Point","coordinates":[-122.283434,37.873974]}},{"type":"Feature","properties":{"kind":"station","name":"West Oakland"},"geometry":{"type":"Point","coordinates":[-122.295161,37.804887]}},{"type":"Feature","properties":{"kind":"station","name":"12th St"},"geometry":{"type":"Point","coordinates":[-122.271676,37.80359]}},{"type":"Feature","properties":{"kind":"station","name":"Lake Merritt"},"geometry":{"type":"Point","coordinates":[-122.265227,37.797293]}},{"type":"Feature","properties":{"kind":"station","name":"MacArthur"},"geometry":{"type":"Point","coordinates":[-122.267063,37.829083]}},{"type":"Feature","properties":{"kind":"station","name":"Rockridge"},"geometry":{"type":"Point","coordinates":[-122.251315,37.844739]}},{"type":"Feature","properties":{"kind":"station","name":"19th St"},"geometry":{"type":"Point","coordinates":[-122.268654,37.808493]}},{"type":"Feature","properties":{"kind":"station","name":"Ashby"},"geometry":{"type":"Point","coordinates":[-122.269994,37.852575]}}]}